OBJECT_NAME,OBJECT_ID,EPOCH,MEAN_MOTION,ECCENTRICITY,INCLINATION,RA_OF_ASC_NODE,ARG_OF_PERICENTER,MEAN_ANOMALY,EPHEMERIS_TYPE,CLASSIFICATION_TYPE,NORAD_CAT_ID,ELEMENT_SET_NO,REV_AT_EPOCH,BSTAR,MEAN_MOTION_DOT,MEAN_MOTION_DDOT
HAWK-5A,2022-057AB,2026-06-15T04:09:25.085664,15.51328713,.00057098,97.6597,324.8906,85.1897,275.0006,0,U,52757,999,22603,.27784885E-3,.16238E-3,0
HAWK-6B,2023-011A,2026-06-14T22:53:01.499712,15.22916591,.00027545,40.4995,5.1004,346.5783,13.4953,0,U,55324,999,18750,.21179999E-3,.4881E-4,0
HAWK-6C,2023-011C,2026-06-14T22:52:03.838944,15.22913356,.00035966,40.4989,1.9422,337.2013,22.8636,0,U,55326,999,18751,.1830179E-3,.419E-4,0
HAWK-6A,2023-011D,2026-06-14T22:52:08.622048,15.22913773,.00033289,40.4995,3.5673,334.9112,25.1535,0,U,55327,999,18751,.19953935E-3,.4586E-4,0
HAWK-7A,2023-054P,2026-06-15T03:28:41.040480,15.27341891,.00044441,97.2705,53.5343,61.8117,298.3571,0,U,56191,999,17671,.1776115E-3,.4684E-4,0
HAWK-7B,2023-054R,2026-06-15T03:28:33.533184,15.27339835,.00038129,97.2735,51.7977,72.4699,287.6957,0,U,56193,999,17671,.18241317E-3,.4812E-4,0
HAWK-7C,2023-054Y,2026-06-15T03:28:24.129408,15.27341796,.00038025,97.2710,52.5671,64.3687,295.7945,0,U,56200,999,17671,.17873155E-3,.4714E-4,0
